satname,norad_id,inclination_deg,eccentricity,mean_motion_rev_per_day,perigee_km,apogee_km,l1,l2
STARLINK-1523,46028,53.0553,0.0001376,15.06400314,546.2576677445186,548.163523402819,1 46028U 20055B   26046.74964832  .00000833  00000+0  74807-4 0  9996,2 46028  53.0553 225.1107 0001376  88.1723 271.9424 15.06400314305592
STARLINK-1526,46029,53.0548,0.0001528,15.06401892,546.1475668632338,548.2639516104555,1 46029U 20055C   26046.74227776  .00001999  00000+0  15305-3 0  9997,2 46029  53.0548 225.1422 0001528  91.4494 268.6670 15.06401892305585
STARLINK-1555,46032,53.0559,0.0001322,15.0640885,546.2689066021167,548.0999615892906,1 46032U 20055F   26046.72752197  .00001946  00000+0  14943-3 0  9998,2 46032  53.0559 225.2086 0001322  88.7259 271.3881 15.06408850305584
STARLINK-1556,46033,53.0559,0.0001357,15.06404728,546.2572995041965,548.1368351700721,1 46033U 20055G   26046.77544786  .00000877  00000+0  77746-4 0  9990,2 46033  53.0559 224.9933 0001357 100.4039 259.7103 15.06404728305563
STARLINK-1557,46034,53.0558,0.0001397,15.06397204,546.2526548981523,548.187599679517,1 46034U 20055H   26046.71279098  .00000242  00000+0  35163-4 0  9999,2 46034  53.0558 225.2754 0001397  99.6779 260.4368 15.06397204305553
STARLINK-1558,46035,53.0558,0.0001653,15.06398275,546.0720838293282,548.3616058104253,1 46035U 20055J   26046.78651182  .00000825  00000+0  74256-4 0  9998,2 46035  53.0558 224.9435 0001653 105.6635 254.4536 15.06398275305593
STARLINK-1560,46036,53.0563,0.0001102,15.06426278,546.3678562878649,547.8941853596534,1 46036U 20055K   26046.77175567 -.00003846  00000+0 -23925-3 0  9990,2 46036  53.0563 225.0101 0001102  91.9184 268.1932 15.06426278305594
STARLINK-1567,46038,53.0554,0.0001418,15.0640402,546.2172245662214,548.1812499231028,1 46038U 20055M   26046.71647085  .00000888  00000+0  78487-4 0  9990,2 46038  53.0554 225.2575 0001418  96.8950 263.2200 15.06404020305571
STARLINK-1569,46039,53.0559,9.64e-05,15.06392995,546.5654216669336,547.9006330082057,1 46039U 20055N   26046.72384508  .00000649  00000+0  62486-4 0  9997,2 46039  53.0559 225.2250 0000964  66.8733 293.2358 15.06392995305572
STARLINK-1582,46043,53.0556,0.0001291,15.06405329,546.3011649786476,548.089285759238,1 46043U 20055S   26046.79755692  .00001318  00000+0  10732-3 0  9995,2 46043  53.0556 224.8943 0001291  90.5705 269.5432 15.06405329305581
STARLINK-1591,46045,53.0548,0.0001306,15.06410946,546.2735640875953,548.0824563682672,1 46045U 20055U   26046.75701065  .00002050  00000+0  15646-3 0  9991,2 46045  53.0548 225.0770 0001306 100.9257 259.1879 15.06410946305569
STARLINK-1524,46047,53.0811,0.0001222,15.12797339,526.8298727540523,528.5176529044875,1 46047U 20055W   26046.91668981  .00880602  00000+0  45975-1 0  9993,2 46047  53.0811 214.2758 0001222  89.3681 359.4957 15.12797339  5589
STARLINK-1527,46048,53.0706,0.0001434,15.10480475,533.7423462449678,535.7249575479327,1 46048U 20055X   26046.91668981  .01524370  00000+0  84431-1 0  9992,2 46048  53.0706 214.3301 0001434  63.2382  15.4906 15.10480475  5785
STARLINK-1540,46051,53.0816,0.0001235,15.13482858,524.7357103740951,526.4409305282461,1 46051U 20055AA  26046.91668981  .00128805  00000+0  70049-2 0  9999,2 46051  53.0816 214.2686 0001235 140.6692 153.1007 15.13482858  5736
STARLINK-1541,46052,53.0863,9.33e-05,15.14414262,522.113530169795,523.4012370617784,1 46052U 20055AB  26046.91668981  .00089510  00000+0  47733-2 0  9993,2 46052  53.0863 214.1738 0000933  83.8234 341.4511 15.14414262  5670
STARLINK-1543,46053,53.0797,7.68e-05,15.12989397,526.5590159958565,527.6196587612785,1 46053U 20055AC  26046.91668981  .00119470  00000+0  65974-2 0  9990,2 46053  53.0797 214.2775 0000768 108.5344 240.1495 15.12989397  5841
STARLINK-1548,46054,53.0814,6.12e-05,15.1330691,525.7008873493842,526.5459688257824,1 46054U 20055AD  26046.91668981  .00122920  00000+0  67242-2 0  9995,2 46054  53.0814 214.2594 0000612 145.8065 172.3831 15.13306910  5736
STARLINK-1554,46055,53.0791,8.07e-05,15.12833073,527.0077260617063,528.1223063671232,1 46055U 20055AE  26046.91668981  .00086673  00000+0  48339-2 0  9996,2 46055  53.0791 214.2574 0000807  90.5815 308.5976 15.12833073  5843
STARLINK-1564,46058,53.0805,3.33e-05,15.13064559,526.6307194083174,527.0905922521952,1 46058U 20055AH  26046.91668981  .00122407  00000+0  67421-2 0  9998,2 46058  53.0805 214.7335 0000333 135.2264 196.3693 15.13064559  5846
STARLINK-1570,46059,53.0712,0.0002055,15.10607846,532.9245464058095,535.7655765330737,1 46059U 20055AJ  26046.91668981  .01565716  00000+0  86230-1 0  9992,2 46059  53.0712 214.3297 0002055  77.6099  61.8878 15.10607846  5845
STARLINK-1572,46060,53.0767,0.0002243,15.12063591,528.3581958281366,531.4571446672098,1 46060U 20055AK  26046.91668981  .00120174  00000+0  68088-2 0  9990,2 46060  53.0767 214.2926 0002243  86.9112  92.3557 15.12063591  5683
STARLINK-1573,46061,53.0764,0.0002128,15.1156547,529.9548825535321,532.8955922417681,1 46061U 20055AL  26046.91668981  .01512842  00000+0  80220-1 0  9990,2 46061  53.0764 214.3482 0002128  87.2595 102.1429 15.11565470  5736
STARLINK-1577,46063,53.0768,0.0001034,15.11814693,529.9514843676725,531.3802247979993,1 46063U 20055AN  26046.91668981  .01514234  00000+0  79726-1 0  9998,2 46063  53.0768 214.3059 0001034  65.8227 346.3668 15.11814693  5855
STARLINK-1583,46064,53.075,0.0002111,15.11342055,530.6474082726836,533.5649129350913,1 46064U 20055AP  26046.83334490  .01508982  00000+0  81694-1 0  9995,2 46064  53.0750 214.6906 0002111  77.4223  56.7983 15.11342055  5729
STARLINK-1525,46066,53.0546,0.0001263,15.06408093,546.3120857797776,548.0614225600812,1 46066U 20055AR  26046.81137208 -.00001950  00000+0 -11201-3 0  9996,2 46066  53.0546 194.8321 0001263 102.8561 257.2569 15.06408093306001
STARLINK-1536,46070,53.0561,0.0001226,15.06394894,546.3781574852865,548.0762567888769,1 46070U 20055AV  26046.78926655  .00000718  00000+0  67097-4 0  9993,2 46070  53.0561 194.9312 0001226  86.1749 273.9380 15.06394894306015
STARLINK-1542,46073,53.0551,0.0001311,15.0641623,546.2539090976816,548.0697224471769,1 46073U 20055AY  26046.78190413  .00003438  00000+0  24948-3 0  9990,2 46073  53.0551 194.9645 0001311  91.4722 268.6417 15.06416230306001
STARLINK-1549,46074,53.0556,0.000134,15.06393369,546.3038816427252,548.1598805028525,1 46074U 20055AZ  26046.56811736  .00000214  00000+0  33293-4 0  9998,2 46074  53.0556 195.9233 0001340  99.7525 260.3615 15.06393369305965
